NORAD_CAT_ID,OBJECT_NAME,OBJECT_TYPE,EPOCH,MEAN_MOTION,ECCENTRICITY,INCLINATION,RA_OF_ASC_NODE,ARG_OF_PERICENTER,MEAN_ANOMALY,BSTAR,MEAN_MOTION_DOT,MEAN_MOTION_DDOT,TLE_LINE0,TLE_LINE1,TLE_LINE2,SEMIMAJOR_AXIS,PERIOD,APOGEE,PERIGEE,DECAYED
53638.0,STARLINK-4594,PAYLOAD,2023-02-08 19:46:44,15.10482131,0.0001293,53.2161,233.4882,105.5804,254.5332,0.00032433,5.112e-05,0.0,0 STARLINK-4594,1 53638U 22104BC  23039.82412815  .00005112  00000-0  32433-3 0  9999,2 53638  53.2161 233.4882 0001293 105.5804 254.5332 15.10482131 26416,6912.866,95.334,535.624,533.837,0.0
53638.0,STARLINK-4594,PAYLOAD,2023-02-09 10:04:17,15.10471199,0.0001297,53.2161,230.8085,102.9193,257.1945,1.4704e-05,-4.8e-07,0.0,0 STARLINK-4594,1 53638U 22104BC  23040.41964501 -.00000048  00000-0  14704-4 0  9996,2 53638  53.2161 230.8085 0001297 102.9193 257.1945 15.10471199 26509,6912.899,95.334,535.661,533.867,0.0
53638.0,STARLINK-4594,PAYLOAD,2023-02-09 19:35:58,15.10476385,0.0001245,53.2161,229.0229,93.9702,266.1433,0.00011105,1.557e-05,0.0,0 STARLINK-4594,1 53638U 22104BC  23040.81665324  .00001557  00000-0  11105-3 0  9997,2 53638  53.2161 229.0229 0001245  93.9702 266.1433 15.10476385 25544,6912.883,95.334,535.609,533.887,0.0
53638.0,STARLINK-4594,PAYLOAD,2023-02-10 14:39:28,15.10355112,0.0001588,53.2163,225.45,68.4092,291.707,-0.0015427,-0.00025797,0.0,0 STARLINK-4594,1 53638U 22104BC  23041.61074285 -.00025797  00000-0 -15427-2 0  9990,2 53638  53.2163 225.4500 0001588  68.4092 291.7070 15.10355112 25665,6913.253,95.342,536.216,534.02,0.0
53638.0,STARLINK-4594,PAYLOAD,2023-02-10 16:14:48,15.10274756,0.0001422,53.2165,225.1529,98.1446,261.9709,-0.0026439,-0.00043796,0.0,0 STARLINK-4594,1 53638U 22104BC  23041.67695435 -.00043796  00000-0 -26439-2 0  9996,2 53638  53.2165 225.1529 0001422  98.1446 261.9709 15.10274756 26691,6913.498,95.347,536.346,534.38,0.0
53638.0,STARLINK-4594,PAYLOAD,2023-02-11 04:57:24,15.09991504,0.0001506,53.2165,222.7723,85.5528,274.5636,-0.0056809,-0.00092414,0.0,0 STARLINK-4594,1 53638U 22104BC  23042.20653685 -.00092414  00000-0 -56809-2 0  9992,2 53638  53.2165 222.7723 0001506  85.5528 274.5636 15.09991504 25754,6914.363,95.365,537.269,535.187,0.0
53638.0,STARLINK-4594,PAYLOAD,2023-02-11 09:43:26,15.09865026,0.0001055,53.2168,221.879,98.6453,261.4659,-0.0067374,-0.00108913,0.0,0 STARLINK-4594,1 53638U 22104BC  23042.40516489 -.00108913  00000-0 -67374-2 0  9995,2 53638  53.2168 221.8790 0001055  98.6453 261.4659 15.09865026 25784,6914.749,95.373,537.344,535.885,0.0
53638.0,STARLINK-4594,PAYLOAD,2023-02-11 12:54:10,15.0973334,0.0002056,53.2164,221.2842,51.2384,308.8792,-0.008096,-0.00129971,0.0,0 STARLINK-4594,1 53638U 22104BC  23042.53762142 -.00129971  00000-0 -80960-2 0  9991,2 53638  53.2164 221.2842 0002056  51.2384 308.8792 15.09733340 26825,6915.151,95.381,538.438,535.594,0.0
53638.0,STARLINK-4594,PAYLOAD,2023-02-11 19:15:35,15.09582747,0.0001339,53.2165,220.0942,123.0413,237.0708,-0.009063,-0.00144559,0.0,0 STARLINK-4594,1 53638U 22104BC  23042.80248959 -.00144559  00000-0 -90630-2 0  9990,2 53638  53.2165 220.0942 0001339 123.0413 237.0708 15.09582747 25842,6915.611,95.391,538.402,536.55,0.0
53638.0,STARLINK-4594,PAYLOAD,2023-02-12 08:00:01,15.08808466,0.0001139,53.216,217.7091,98.3488,267.3056,0.0026044,0.00041369,0.0,0 STARLINK-4594,1 53638U 22104BC  23043.33334491  .00041369  00000-0  26044-2 0  9997,2 53638  53.2160 217.7091 0001139  98.3488 267.3056 15.08808466 25928,6917.977,95.44,540.63,539.054,0.0
53638.0,STARLINK-4594,PAYLOAD,2023-02-12 14:00:01,15.08853354,0.0001191,53.2162,216.5875,95.5902,188.7349,-0.0017768,-0.00028464,0.0,0 STARLINK-4594,1 53638U 22104BC  23043.58334491 -.00028464  00000-0 -17768-2 0  9990,2 53638  53.2162 216.5875 0001191  95.5902 188.7349 15.08853354  1308,6917.84,95.437,540.528,538.881,0.0
53638.0,STARLINK-4594,PAYLOAD,2023-02-12 22:00:00,15.08803748,0.0001172,53.2161,215.0926,77.2868,218.6499,0.0027374,0.00043503,0.0,0 STARLINK-4594,1 53638U 22104BC  23043.91667824  .00043503  00000-0  27374-2 0  9999,2 53638  53.2161 215.0926 0001172  77.2868 218.6499 15.08803748 26000,6917.991,95.44,540.667,539.045,0.0
53638.0,STARLINK-4594,PAYLOAD,2023-02-13 14:00:01,15.08868788,0.0001172,53.2162,212.0986,85.8617,233.224,-0.0018212,-0.00029178,0.0,0 STARLINK-4594,1 53638U 22104BC  23044.58334491 -.00029178  00000-0 -18212-2 0  9999,2 53638  53.2162 212.0986 0001172  85.8617 233.2240 15.08868788 26115,6917.792,95.436,540.468,538.847,0.0
53638.0,STARLINK-4594,PAYLOAD,2023-02-14 14:00:01,15.08872321,0.0001149,53.2164,207.6097,90.4167,263.4533,-0.0022517,-0.00035976,0.0,0 STARLINK-4594,1 53638U 22104BC  23045.58334491 -.00035976  00000-0 -22517-2 0  9996,2 53638  53.2164 207.6097 0001149  90.4167 263.4533 15.08872321  1308,6917.782,95.436,540.441,538.852,0.0
53638.0,STARLINK-4594,PAYLOAD,2023-02-14 20:00:01,15.08842273,0.0001174,53.2164,206.4886,83.9964,188.5955,-0.0018253,-0.00029221,0.0,0 STARLINK-4594,1 53638U 22104BC  23045.83334491 -.00029221  00000-0 -18253-2 0  9992,2 53638  53.2164 206.4886 0001174  83.9964 188.5955 15.08842273  1309,6917.873,95.437,540.551,538.926,0.0
53638.0,STARLINK-4594,PAYLOAD,2023-02-15 00:00:00,15.08826083,0.0001101,53.2161,205.74,88.013,10.3794,0.00022247,3.253e-05,0.0,0 STARLINK-4594,1 53638U 22104BC  23046.00001157  .00003253  00000-0  22247-3 0  9996,2 53638  53.2161 205.7400 0001101  88.0130  10.3794 15.08826083  1305,6917.923,95.438,540.55,539.026,0.0
53638.0,STARLINK-4594,PAYLOAD,2023-02-15 10:41:40,15.0884321,0.0001268,53.2162,203.7351,104.3636,255.7497,2.4307e-05,9.9e-07,0.0,0 STARLINK-4594,1 53638U 22104BC  23046.44560922  .00000099  00000-0  24307-4 0  9999,2 53638  53.2162 203.7351 0001268 104.3636 255.7497 15.08843210 26398,6917.871,95.437,540.613,538.858,0.0
53638.0,STARLINK-4594,PAYLOAD,2023-02-15 20:13:59,15.08842839,0.0001347,53.2161,201.9545,87.7176,272.397,0.00019308,2.787e-05,0.0,0 STARLINK-4594,1 53638U 22104BC  23046.84304630  .00002787  00000-0  19308-3 0  9995,2 53638  53.2161 201.9545 0001347  87.7176 272.3970 15.08842839 27470,6917.872,95.437,540.669,538.805,0.0
53638.0,STARLINK-4594,PAYLOAD,2023-02-16 10:32:27,15.08842941,0.0001603,53.2156,199.2764,114.4734,245.6425,0.0001003,1.309e-05,0.0,0 STARLINK-4594,1 53638U 22104BC  23047.43920635  .00001309  00000-0  10030-3 0  9992,2 53638  53.2156 199.2764 0001603 114.4734 245.6425 15.08842941 27561,6917.871,95.437,540.845,538.627,0.0
53638.0,STARLINK-4594,PAYLOAD,2023-02-16 18:29:22,15.08856829,0.0001456,53.217,197.7928,104.54,255.5754,0.0001433,1.994e-05,0.0,0 STARLINK-4594,1 53638U 22104BC  23047.77039710  .00001994  00000-0  14330-3 0  9991,2 53638  53.2170 197.7928 0001456 104.5400 255.5754 15.08856829 26595,6917.829,95.436,540.701,538.687,0.0
53638.0,STARLINK-4594,PAYLOAD,2023-02-17 10:23:14,15.08837648,9.18e-05,53.2201,194.8173,88.6987,271.4111,-2.6831e-05,-7.15e-06,0.0,0 STARLINK-4594,1 53638U 22104BC  23048.43281179 -.00000715  00000-0 -26831-4 0  9995,2 53638  53.2201 194.8173 0000918  88.6987 271.4111 15.08837648 26697,6917.888,95.438,540.388,539.118,0.0
53638.0,STARLINK-4594,PAYLOAD,2023-02-18 05:27:53,15.08826102,0.0001356,53.2173,191.249,100.1571,259.9574,-3.8367e-05,-8.98e-06,0.0,0 STARLINK-4594,1 53638U 22104BC  23049.22770358 -.00000898  00000-0 -38367-4 0  9994,2 53638  53.2173 191.2490 0001356 100.1571 259.9574 15.08826102 26815,6917.923,95.438,540.726,538.85,0.0
53638.0,STARLINK-4594,PAYLOAD,2023-02-18 11:49:25,15.08834474,0.0001173,53.2179,190.0602,95.3633,264.7493,-7.5986e-05,-1.497e-05,0.0,0 STARLINK-4594,1 53638U 22104BC  23049.49266142 -.00001497  00000-0 -75986-4 0  9998,2 53638  53.2179 190.0602 0001173  95.3633 264.7493 15.08834474 27876,6917.897,95.438,540.574,538.951,0.0
53638.0,STARLINK-4594,PAYLOAD,2023-02-18 15:00:11,15.08838349,8.82e-05,53.2182,189.4656,82.6613,277.4479,-5.8901e-05,-1.225e-05,0.0,0 STARLINK-4594,1 53638U 22104BC  23049.62513880 -.00001225  00000-0 -58901-4 0  9994,2 53638  53.2182 189.4656 0000882  82.6613 277.4479 15.08838349 26873,6917.885,95.438,540.361,539.14,0.0
53638.0,STARLINK-4594,PAYLOAD,2023-02-19 13:15:35,15.08849198,0.0001029,53.2181,185.3035,89.8694,270.2416,4.7124e-05,4.62e-06,0.0,0 STARLINK-4594,1 53638U 22104BC  23050.55249250  .00000462  00000-0  47124-4 0  9990,2 53638  53.2181 185.3035 0001029  89.8694 270.2416 15.08849198 27013,6917.852,95.437,540.429,539.005,0.0
53638.0,STARLINK-4594,PAYLOAD,2023-02-19 18:01:45,15.08836259,0.0001201,53.218,184.4115,86.1211,273.9918,0.00038272,5.808e-05,0.0,0 STARLINK-4594,1 53638U 22104BC  23050.75121570  .00005808  00000-0  38272-3 0  9998,2 53638  53.2180 184.4115 0001201  86.1211 273.9918 15.08836259 27042,6917.892,95.438,540.588,538.926,0.0
53638.0,STARLINK-4594,PAYLOAD,2023-02-20 14:41:46,15.08839276,0.0001178,53.2184,180.5458,78.9717,281.1408,0.00012811,1.752e-05,0.0,0 STARLINK-4594,1 53638U 22104BC  23051.61233954  .00001752  00000-0  12811-3 0  9999,2 53638  53.2184 180.5458 0001178  78.9717 281.1408 15.08839276 28190,6917.883,95.438,540.563,538.933,0.0
53638.0,STARLINK-4594,PAYLOAD,2023-02-21 01:49:27,15.08845394,0.0001318,53.2188,178.4655,85.6005,274.5138,9.9878e-05,1.302e-05,0.0,0 STARLINK-4594,1 53638U 22104BC  23052.07601502  .00001302  00000-0  99878-4 0  9998,2 53638  53.2188 178.4655 0001318  85.6005 274.5138 15.08845394 27249,6917.864,95.437,540.641,538.817,0.0
53638.0,STARLINK-4594,PAYLOAD,2023-02-21 14:32:33,15.08835529,0.0001045,53.2196,176.0853,97.0002,263.1109,0.00019493,2.816e-05,0.0,0 STARLINK-4594,1 53638U 22104BC  23052.60593831  .00002816  00000-0  19493-3 0  9997,2 53638  53.2196 176.0853 0001045  97.0002 263.1109 15.08835529 27323,6917.894,95.438,540.482,539.036,0.0
53638.0,STARLINK-4594,PAYLOAD,2023-02-22 01:40:13,15.08857267,0.0001262,53.2175,174.0053,87.8492,272.2644,4.2978e-06,-2.19e-06,0.0,0 STARLINK-4594,1 53638U 22104BC  23053.06960486 -.00000219  00000-0  42978-5 0  9994,2 53638  53.2175 174.0053 0001262  87.8492 272.2644 15.08857267 27396,6917.828,95.436,540.566,538.82,0.0
